[{"OBJECT_NAME":"STARLINK-5561","OBJECT_ID":"2023-058W","EPOCH":"2026-03-09T23:32:34.414368","MEAN_MOTION":15.01265447,"ECCENTRICITY":0.00011974,"INCLINATION":97.6032,"RA_OF_ASC_NODE":70.4783,"ARG_OF_PERICENTER":140.3947,"MEAN_ANOMALY":219.7365,"EPHEMERIS_TYPE":0,"CLASSIFICATION_TYPE":"U","NORAD_CAT_ID":56337,"ELEMENT_SET_NO":999,"REV_AT_EPOCH":15817,"BSTAR":-9.0581683e-5,"MEAN_MOTION_DOT":-1.222e-5,"MEAN_MOTION_DDOT":0},{"OBJECT_NAME":"TIUNGSAT-1 (MO-46)","OBJECT_ID":"2000-057D","EPOCH":"2026-03-09T15:36:52.176096","MEAN_MOTION":15.01128781,"ECCENTRICITY":0.003692,"INCLINATION":64.5465,"RA_OF_ASC_NODE":82.7132,"ARG_OF_PERICENTER":302.2682,"MEAN_ANOMALY":57.4857,"EPHEMERIS_TYPE":0,"CLASSIFICATION_TYPE":"U","NORAD_CAT_ID":26548,"ELEMENT_SET_NO":999,"REV_AT_EPOCH":38128,"BSTAR":0.00030184,"MEAN_MOTION_DOT":3.762e-5,"MEAN_MOTION_DDOT":0}]
